NORAD_CAT_ID,OBJECT_NAME,OBJECT_TYPE,EPOCH,MEAN_MOTION,ECCENTRICITY,INCLINATION,RA_OF_ASC_NODE,ARG_OF_PERICENTER,MEAN_ANOMALY,BSTAR,MEAN_MOTION_DOT,MEAN_MOTION_DDOT,TLE_LINE0,TLE_LINE1,TLE_LINE2,SEMIMAJOR_AXIS,PERIOD,APOGEE,PERIGEE,DECAYED
53014.0,STARLINK-4183,PAYLOAD,2023-12-12 17:02:29,15.08836254,0.0001362,53.2167,156.1726,96.4997,263.6151,3.0816e-05,2.03e-06,0.0,0 STARLINK-4183,1 53014U 22076AE  23346.71006143  .00000203  00000-0  30816-4 0  9997,2 53014  53.2167 156.1726 0001362  96.4997 263.6151 15.08836254 79960,6917.892,95.438,540.699,538.815,0.0
53014.0,STARLINK-4183,PAYLOAD,2023-12-13 18:28:39,15.08838339,0.0001336,53.2164,151.4129,87.7805,272.334,2.1949e-05,6.1e-07,0.0,0 STARLINK-4183,1 53014U 22076AE  23347.76990242  .00000061  00000-0  21949-4 0  9994,2 53014  53.2164 151.4129 0001336  87.7805 272.3340 15.08838339 80127,6917.885,95.438,540.675,538.826,0.0
53014.0,STARLINK-4183,PAYLOAD,2023-12-14 18:19:26,15.08838221,0.0001288,53.216,146.956,79.6934,280.4203,5.397e-05,5.71e-06,0.0,0 STARLINK-4183,1 53014U 22076AE  23348.76350423  .00000571  00000-0  53970-4 0  9991,2 53014  53.2160 146.9560 0001288  79.6934 280.4203 15.08838221 79801,6917.886,95.438,540.642,538.86,0.0
53014.0,STARLINK-4183,PAYLOAD,2023-12-15 18:10:13,15.08839254,0.0001525,53.2165,142.4974,69.8625,290.2531,6.5894e-05,7.61e-06,0.0,0 STARLINK-4183,1 53014U 22076AE  23349.75710588  .00000761  00000-0  65894-4 0  9992,2 53014  53.2165 142.4974 0001525  69.8625 290.2531 15.08839254 80428,6917.883,95.438,540.803,538.693,0.0
53014.0,STARLINK-4183,PAYLOAD,2023-12-16 16:25:37,15.08842523,0.0001532,53.2166,138.3348,70.9427,289.1731,6.6751e-05,7.75e-06,0.0,0 STARLINK-4183,1 53014U 22076AE  23350.68446400  .00000775  00000-0  66751-4 0  9993,2 53014  53.2166 138.3348 0001532  70.9427 289.1731 15.08842523 80094,6917.873,95.437,540.797,538.678,0.0
53014.0,STARLINK-4183,PAYLOAD,2023-12-17 14:41:01,15.08838852,0.0001309,53.2161,134.1761,80.5767,279.5373,-1.5036e-06,-3.12e-06,0.0,0 STARLINK-4183,1 53014U 22076AE  23351.61182846 -.00000312  00000-0 -15036-5 0  9998,2 53014  53.2161 134.1761 0001309  80.5767 279.5373 15.08838852 80239,6917.884,95.438,540.654,538.843,0.0
53014.0,STARLINK-4183,PAYLOAD,2023-12-17 16:16:24,15.08840427,0.0001355,53.2156,133.8772,80.1294,279.9851,1.8275e-05,3e-08,0.0,0 STARLINK-4183,1 53014U 22076AE  23351.67806670  .00000003  00000-0  18275-4 0  9994,2 53014  53.2156 133.8772 0001355  80.1294 279.9851 15.08840427 80712,6917.879,95.438,540.681,538.807,0.0
53014.0,STARLINK-4183,PAYLOAD,2023-12-18 14:31:48,15.08843094,0.0001554,53.2172,129.7145,115.1181,244.9972,8.0488e-05,9.93e-06,0.0,0 STARLINK-4183,1 53014U 22076AE  23352.60542010  .00000993  00000-0  80488-4 0  9996,2 53014  53.2172 129.7145 0001554 115.1181 244.9972 15.08843094 80385,6917.871,95.437,540.811,538.661,0.0
53014.0,STARLINK-4183,PAYLOAD,2023-12-18 16:07:11,15.08848363,0.0001299,53.2164,129.4066,101.7556,258.3582,5.1099e-05,5.26e-06,0.0,0 STARLINK-4183,1 53014U 22076AE  23352.67165736  .00000526  00000-0  51099-4 0  9997,2 53014  53.2164 129.4066 0001299 101.7556 258.3582 15.08848363 80861,6917.855,95.437,540.618,538.821,0.0
53014.0,STARLINK-4183,PAYLOAD,2023-12-19 14:22:35,15.08836625,0.0001479,53.217,125.245,114.2233,245.8914,1.8249e-05,2e-08,0.0,0 STARLINK-4183,1 53014U 22076AE  23353.59902586  .00000002  00000-0  18249-4 0  9990,2 53014  53.2170 125.2450 0001479 114.2233 245.8914 15.08836625 80532,6917.891,95.438,540.779,538.733,0.0
53014.0,STARLINK-4183,PAYLOAD,2023-12-20 14:13:23,15.08838972,0.0001413,53.2174,120.7857,114.9527,245.1612,-8.7432e-05,-1.679e-05,0.0,0 STARLINK-4183,1 53014U 22076AE  23354.59263114 -.00001679  00000-0 -87432-4 0  9991,2 53014  53.2174 120.7857 0001413 114.9527 245.1612 15.08838972 80689,6917.884,95.438,540.726,538.771,0.0
53014.0,STARLINK-4183,PAYLOAD,2023-12-20 15:48:46,15.08825662,0.0001378,53.217,120.4875,106.8239,253.2904,9.5662e-05,1.234e-05,0.0,0 STARLINK-4183,1 53014U 22076AE  23354.65887355  .00001234  00000-0  95662-4 0  9996,2 53014  53.2170 120.4875 0001378 106.8239 253.2904 15.08825662 81162,6917.924,95.438,540.743,538.836,0.0
53014.0,STARLINK-4183,PAYLOAD,2023-12-21 14:04:10,15.08830968,0.0001192,53.2167,116.3219,89.909,270.2039,0.00015239,2.138e-05,0.0,0 STARLINK-4183,1 53014U 22076AE  23355.58623291  .00002138  00000-0  15239-3 0  9991,2 53014  53.2167 116.3219 0001192  89.9090 270.2039 15.08830968 80830,6917.908,95.438,540.598,538.948,0.0
53014.0,STARLINK-4183,PAYLOAD,2023-12-21 15:39:33,15.08842848,0.0001187,53.2172,116.0265,91.1973,268.9155,6.9428e-05,8.17e-06,0.0,0 STARLINK-4183,1 53014U 22076AE  23355.65246909  .00000817  00000-0  69428-4 0  9998,2 53014  53.2172 116.0265 0001187  91.1973 268.9155 15.08842848 81310,6917.872,95.437,540.558,538.916,0.0
53014.0,STARLINK-4183,PAYLOAD,2023-12-22 12:19:34,15.0880608,0.0001776,53.2185,112.1621,62.365,297.7522,0.00054372,8.368e-05,0.0,0 STARLINK-4183,1 53014U 22076AE  23356.51359951  .00008368  00000-0  54372-3 0  9996,2 53014  53.2185 112.1621 0001776  62.3650 297.7522 15.08806080 81443,6917.984,95.44,541.078,538.62,0.0
53014.0,STARLINK-4183,PAYLOAD,2023-12-22 13:54:58,15.0881585,0.0001844,53.2185,111.8646,55.0494,305.0671,0.000455,6.956e-05,0.0,0 STARLINK-4183,1 53014U 22076AE  23356.57983906  .00006956  00000-0  45500-3 0  9999,2 53014  53.2185 111.8646 0001844  55.0494 305.0671 15.08815850 80988,6917.954,95.439,541.095,538.544,0.0
53014.0,STARLINK-4183,PAYLOAD,2023-12-22 15:30:20,15.08843763,0.0001581,53.2182,111.5693,65.3899,294.7258,0.00013513,1.863e-05,0.0,0 STARLINK-4183,1 53014U 22076AE  23356.64607197  .00001863  00000-0  13513-3 0  9993,2 53014  53.2182 111.5693 0001581  65.3899 294.7258 15.08843763 81468,6917.869,95.437,540.828,538.64,0.0
53014.0,STARLINK-4183,PAYLOAD,2023-12-23 12:10:21,15.08842467,0.0001695,53.2177,107.7061,62.6326,297.4838,3.5444e-05,2.76e-06,0.0,0 STARLINK-4183,1 53014U 22076AE  23357.50719610  .00000276  00000-0  35444-4 0  9998,2 53014  53.2177 107.7061 0001695  62.6326 297.4838 15.08842467 81597,6917.873,95.437,540.91,538.565,0.0
53014.0,STARLINK-4183,PAYLOAD,2023-12-23 13:45:43,15.08862512,0.0001645,53.2185,107.397,96.5001,263.6178,0.0001984,2.873e-05,0.0,0 STARLINK-4183,1 53014U 22076AE  23357.57341741  .00002873  00000-0  19840-3 0  9997,2 53014  53.2185 107.3970 0001645  96.5001 263.6178 15.08862512 81137,6917.812,95.436,540.815,538.539,0.0
53014.0,STARLINK-4183,PAYLOAD,2023-12-24 04:04:12,15.0885326,0.0001495,53.218,104.7271,104.1846,255.9313,3.5384e-05,2.75e-06,0.0,0 STARLINK-4183,1 53014U 22076AE  23358.16958400  .00000275  00000-0  35384-4 0  9995,2 53014  53.2180 104.7271 0001495 104.1846 255.9313 15.08853260 81699,6917.84,95.437,540.739,538.671,0.0
53014.0,STARLINK-4183,PAYLOAD,2023-12-24 12:01:08,15.08840727,0.000145,53.2181,103.2446,80.3229,279.7927,-4.4327e-05,-9.93e-06,0.0,0 STARLINK-4183,1 53014U 22076AE  23358.50079410 -.00000993  00000-0 -44327-4 0  9994,2 53014  53.2181 103.2446 0001450  80.3229 279.7927 15.08840727 81744,6917.878,95.438,540.746,538.74,0.0
53014.0,STARLINK-4183,PAYLOAD,2023-12-24 13:36:31,15.08842549,0.0001454,53.2171,102.9462,95.5069,264.6089,-5.704e-05,-1.196e-05,0.0,0 STARLINK-4183,1 53014U 22076AE  23358.56703214 -.00001196  00000-0 -57040-4 0  9998,2 53014  53.2171 102.9462 0001454  95.5069 264.6089 15.08842549 81286,6917.873,95.437,540.743,538.732,0.0
53014.0,STARLINK-4183,PAYLOAD,2023-12-25 11:51:55,15.08841179,0.0001536,53.2173,98.7836,91.9781,268.1387,2.8096e-05,1.59e-06,0.0,0 STARLINK-4183,1 53014U 22076AE  23359.49439210  .00000159  00000-0  28096-4 0  9998,2 53014  53.2173  98.7836 0001536  91.9781 268.1387 15.08841179 81421,6917.877,95.437,540.804,538.679,0.0
53014.0,STARLINK-4183,PAYLOAD,2023-12-26 11:42:43,15.08830855,0.0001401,53.2166,94.3233,74.0072,286.1075,6.8578e-05,8.03e-06,0.0,0 STARLINK-4183,1 53014U 22076AE  23360.48799996  .00000803  00000-0  68578-4 0  9994,2 53014  53.2166  94.3233 0001401  74.0072 286.1075 15.08830855 82044,6917.908,95.438,540.743,538.804,0.0
53014.0,STARLINK-4183,PAYLOAD,2023-12-26 13:18:06,15.08832599,0.0001373,53.2167,94.0253,77.8279,282.2867,0.00011241,1.501e-05,0.0,0 STARLINK-4183,1 53014U 22076AE  23360.55423775  .00001501  00000-0  11241-3 0  9991,2 53014  53.2167  94.0253 0001373  77.8279 282.2867 15.08832599 81583,6917.903,95.438,540.718,538.818,0.0
53014.0,STARLINK-4183,PAYLOAD,2023-12-27 11:33:30,15.08838911,0.0001409,53.2167,89.8607,79.1897,280.9254,5.8215e-05,6.39e-06,0.0,0 STARLINK-4183,1 53014U 22076AE  23361.48159874  .00000639  00000-0  58215-4 0  9994,2 53014  53.2167  89.8607 0001409  79.1897 280.9254 15.08838911 81724,6917.884,95.438,540.723,538.774,0.0
53014.0,STARLINK-4183,PAYLOAD,2023-12-27 16:19:38,15.08846282,0.0001357,53.2167,88.9656,103.8125,256.3018,8.8455e-05,1.12e-05,0.0,0 STARLINK-4183,1 53014U 22076AE  23361.68031187  .00001120  00000-0  88455-4 0  9997,2 53014  53.2167  88.9656 0001357 103.8125 256.3018 15.08846282 82220,6917.861,95.437,540.665,538.787,0.0
53014.0,STARLINK-4183,PAYLOAD,2023-12-28 11:24:16,15.08903322,0.0001421,53.2174,85.3941,126.1785,233.9339,-0.00084884,-0.00013795,0.0,0 STARLINK-4183,1 53014U 22076AE  23362.47518799 -.00013795  00000-0 -84884-3 0  9998,2 53014  53.2174  85.3941 0001421 126.1785 233.9339 15.08903322 82347,6917.687,95.434,540.535,538.569,0.0
53014.0,STARLINK-4183,PAYLOAD,2023-12-28 12:59:40,15.08842646,0.0001495,53.2181,85.0971,112.8733,247.2418,3.4562e-06,-2.33e-06,0.0,0 STARLINK-4183,1 53014U 22076AE  23362.54143793 -.00000233  00000-0  34562-5 0  9996,2 53014  53.2181  85.0971 0001495 112.8733 247.2418 15.08842646 81886,6917.872,95.437,540.772,538.703,0.0
53014.0,STARLINK-4183,PAYLOAD,2023-12-29 12:50:27,15.08843751,0.0001307,53.2172,80.6409,90.4378,269.6763,-6.6713e-06,-3.94e-06,0.0,0 STARLINK-4183,1 53014U 22076AE  23363.53504108 -.00000394  00000-0 -66713-5 0  9999,2 53014  53.2172  80.6409 0001307  90.4378 269.6763 15.08843751 82038,6917.869,95.437,540.638,538.83,0.0
